{
  "links" : {
    "next" : "https://api.nasa.gov/neo/rest/v1/feed?start_date=2004-06-16&end_date=2004-06-16&detailed=true&api_key=t0TVs3DtDT2H8Oy2Zy8m2eVrNsAVKAexjcZXUckd",
    "prev" : "https://api.nasa.gov/neo/rest/v1/feed?start_date=2004-06-14&end_date=2004-06-14&detailed=true&api_key=t0TVs3DtDT2H8Oy2Zy8m2eVrNsAVKAexjcZXUckd",
    "self" : "https://api.nasa.gov/neo/rest/v1/feed?start_date=2004-06-15&end_date=2004-06-15&detailed=true&api_key=t0TVs3DtDT2H8Oy2Zy8m2eVrNsAVKAexjcZXUckd"
  },
  "element_count" : 11,
  "near_earth_objects" : {
    "2004-06-15" : [ {
      "links" : {
        "self" : "https://api.nasa.gov/neo/rest/v1/neo/3557844?api_key=t0TVs3DtDT2H8Oy2Zy8m2eVrNsAVKAexjcZXUckd"
      },
      "neo_reference_id" : "3557844",
      "name" : "(2011 DW)",
      "nasa_jpl_url" : "http://ssd.jpl.nasa.gov/sbdb.cgi?sstr=3557844",
      "absolute_magnitude_h" : 23.0,
      "estimated_diameter" : {
        "kilometers" : {
          "estimated_diameter_min" : 0.0667659413,
          "estimated_diameter_max" : 0.1492931834
        },
        "meters" : {
          "estimated_diameter_min" : 66.7659413495,
          "estimated_diameter_max" : 149.2931834393
        },
        "miles" : {
          "estimated_diameter_min" : 0.0414864197,
          "estimated_diameter_max" : 0.0927664547
        },
        "feet" : {
          "estimated_diameter_min" : 219.0483710172,
          "estimated_diameter_max" : 489.807047955
        }
      },
      "is_potentially_hazardous_asteroid" : false,
      "close_approach_data" : [ {
        "close_approach_date" : "2004-06-15",
        "epoch_date_close_approach" : 1087282800000,
        "relative_velocity" : {
          "kilometers_per_second" : "13.1105915879",
          "kilometers_per_hour" : "47198.1297165937",
          "miles_per_hour" : "29327.082323069"
        },
        "miss_distance" : {
          "astronomical" : "0.496633772",
          "lunar" : "193.190536499",
          "kilometers" : "74295352",
          "miles" : "46164992"
        },
        "orbiting_body" : "Earth"
      } ],
      "orbital_data" : {
        "orbit_id" : "12",
        "orbit_determination_date" : "2017-04-06 08:54:23",
        "orbit_uncertainty" : "6",
        "minimum_orbit_intersection" : ".0349837",
        "jupiter_tisserand_invariant" : "6.896",
        "epoch_osculation" : "2458000.5",
        "eccentricity" : ".2751814496603729",
        "semi_major_axis" : ".8397911377048145",
        "inclination" : "25.0658065265282",
        "ascending_node_longitude" : "159.5676539204966",
        "orbital_period" : "281.0964479446135",
        "perihelion_distance" : ".6086961950192697",
        "perihelion_argument" : "152.6734172787703",
        "aphelion_distance" : "1.070886080390359",
        "perihelion_time" : "2457974.058990637371",
        "mean_anomaly" : "33.86297991364878",
        "mean_motion" : "1.280699214210396",
        "equinox" : "J2000"
      }
    }, {
      "links" : {
        "self" : "https://api.nasa.gov/neo/rest/v1/neo/3582523?api_key=t0TVs3DtDT2H8Oy2Zy8m2eVrNsAVKAexjcZXUckd"
      },
      "neo_reference_id" : "3582523",
      "name" : "(2011 UC64)",
      "nasa_jpl_url" : "http://ssd.jpl.nasa.gov/sbdb.cgi?sstr=3582523",
      "absolute_magnitude_h" : 27.9,
      "estimated_diameter" : {
        "kilometers" : {
          "estimated_diameter_min" : 0.0069912523,
          "estimated_diameter_max" : 0.0156329154
        },
        "meters" : {
          "estimated_diameter_min" : 6.9912523225,
          "estimated_diameter_max" : 15.6329154409
        },
        "miles" : {
          "estimated_diameter_min" : 0.0043441614,
          "estimated_diameter_max" : 0.0097138403
        },
        "feet" : {
          "estimated_diameter_min" : 22.9371802696,
          "estimated_diameter_max" : 51.289094295
        }
      },
      "is_potentially_hazardous_asteroid" : false,
      "close_approach_data" : [ {
        "close_approach_date" : "2004-06-15",
        "epoch_date_close_approach" : 1087282800000,
        "relative_velocity" : {
          "kilometers_per_second" : "22.9831497528",
          "kilometers_per_hour" : "82739.3391101768",
          "miles_per_hour" : "51411.0076820985"
        },
        "miss_distance" : {
          "astronomical" : "0.3036860639",
          "lunar" : "118.1338729858",
          "kilometers" : "45430788",
          "miles" : "28229382"
        },
        "orbiting_body" : "Earth"
      } ],
      "orbital_data" : {
        "orbit_id" : "5",
        "orbit_determination_date" : "2017-04-06 08:52:18",
        "orbit_uncertainty" : "7",
        "minimum_orbit_intersection" : ".00149371",
        "jupiter_tisserand_invariant" : "5.659",
        "epoch_osculation" : "2458000.5",
        "eccentricity" : ".4626127396417857",
        "semi_major_axis" : "1.071556469108616",
        "inclination" : "3.927536629741872",
        "ascending_node_longitude" : "211.5374673915091",
        "orbital_period" : "405.1548299962057",
        "perihelion_distance" : ".5758407952534008",
        "perihelion_argument" : "288.0395912869124",
        "aphelion_distance" : "1.567272142963831",
        "perihelion_time" : "2457946.577944979056",
        "mean_anomaly" : "47.91239884199734",
        "mean_motion" : ".8885491998290417",
        "equinox" : "J2000"
      }
    }, {
      "links" : {
        "self" : "https://api.nasa.gov/neo/rest/v1/neo/3754263?api_key=t0TVs3DtDT2H8Oy2Zy8m2eVrNsAVKAexjcZXUckd"
      },
      "neo_reference_id" : "3754263",
      "name" : "(2016 LU48)",
      "nasa_jpl_url" : "http://ssd.jpl.nasa.gov/sbdb.cgi?sstr=3754263",
      "absolute_magnitude_h" : 21.7,
      "estimated_diameter" : {
        "kilometers" : {
          "estimated_diameter_min" : 0.1214940408,
          "estimated_diameter_max" : 0.2716689341
        },
        "meters" : {
          "estimated_diameter_min" : 121.4940407996,
          "estimated_diameter_max" : 271.6689340891
        },
        "miles" : {
          "estimated_diameter_min" : 0.0754928736,
          "estimated_diameter_max" : 0.1688071972
        },
        "feet" : {
          "estimated_diameter_min" : 398.6025088171,
          "estimated_diameter_max" : 891.3023057169
        }
      },
      "is_potentially_hazardous_asteroid" : false,
      "close_approach_data" : [ {
        "close_approach_date" : "2004-06-15",
        "epoch_date_close_approach" : 1087282800000,
        "relative_velocity" : {
          "kilometers_per_second" : "11.1371613622",
          "kilometers_per_hour" : "40093.7809038653",
          "miles_per_hour" : "24912.7162510712"
        },
        "miss_distance" : {
          "astronomical" : "0.463328164",
          "lunar" : "180.2346496582",
          "kilometers" : "69312904",
          "miles" : "43069044"
        },
        "orbiting_body" : "Earth"
      } ],
      "orbital_data" : {
        "orbit_id" : "17",
        "orbit_determination_date" : "2017-04-06 08:25:20",
        "orbit_uncertainty" : "5",
        "minimum_orbit_intersection" : ".174616",
        "jupiter_tisserand_invariant" : "3.961",
        "epoch_osculation" : "2458000.5",
        "eccentricity" : ".3373987232712878",
        "semi_major_axis" : "1.793852657701817",
        "inclination" : "16.40125714046077",
        "ascending_node_longitude" : "259.8008671699851",
        "orbital_period" : "877.5635562873631",
        "perihelion_distance" : "1.188609061256417",
        "perihelion_argument" : "355.4549482175191",
        "aphelion_distance" : "2.399096254147216",
        "perihelion_time" : "2458403.159370152091",
        "mean_anomaly" : "194.8183761549852",
        "mean_motion" : ".4102266980217624",
        "equinox" : "J2000"
      }
    } ]
  }
}